STARLINK-36164          
1 67127U 25299AB  26008.67365787  .00101915  00000+0  17191-2 0  9992
2 67127  43.0010 154.3276 0001707 270.6558  89.4106 15.50601043  3869
STARLINK-35685          
1 67128U 25299AC  26009.00003471  .00012732  00000+0  31199-3 0  9993
2 67128  43.0000 152.7276 0002369 283.6255 333.1199 15.40656072  5194
STARLINK-36214          
1 67129U 25299AD  26008.67331387  .00098845  00000+0  16687-2 0  9999
2 67129  43.0008 154.3242 0001765 264.6094  95.4565 15.50591951  3865
STARLINK-36194          
1 67130U 25299AE  26007.70641266  .00106350  00000+0  17929-2 0  9995
2 67130  42.9999 159.9704 0003473 262.6217  97.4249 15.50593986  3716
ZIYUAN 3-04 (ZY 3-04)   
1 67131U 25300A   26007.93288203  .00001658  00000+0  76926-4 0  9991
2 67131  97.4896  86.9084 0004017 124.0140 236.1477 15.21443300  3479
KUIPER-00144            
1 67133U 25301A   26008.90923285  .00033859  00000+0  95606-3 0  9991
2 67133  51.8704 354.0919 0006639 161.0010 199.1225 15.36038791  4546
KUIPER-00164            
1 67134U 25301B   26008.96404532  .00030538  00000+0  84920-3 0  9995
2 67134  51.8728 353.7135 0003086 144.0464 216.0731 15.36583557  4733
KUIPER-00175            
1 67135U 25301C   26008.95629492  .00036319  00000+0  98818-3 0  9993
2 67135  51.8746 353.6593 0002834  95.9438 264.1872 15.37175514  4625
KUIPER-00179            
1 67136U 25301D   26008.96185670  .00026682  00000+0  74023-3 0  9994
2 67136  51.8743 353.6978 0003529 125.8916 234.2398 15.36727802  4731
KUIPER-00181            
1 67137U 25301E   26008.92557326 -.00011444  00000+0 -32367-3 0  9999
2 67137  51.8653 354.1893 0010438 186.9508 173.1335 15.34709818  4700
KUIPER-00183            
1 67138U 25301F   26008.93007346  .00016498  00000+0  49245-3 0  9998
2 67138  51.8631 354.2142 0011188 189.0077 171.0710 15.34698154  4718
