CCSDS_OMM_VERS = 2.0
CREATION_DATE  = 
ORIGINATOR     = 

OBJECT_NAME    = STARLINK-36164
OBJECT_ID      = 2025-299AB
CENTER_NAME    = EARTH
REF_FRAME      = TEME
TIME_SYSTEM    = UTC
MEAN_ELEMENT_THEORY = SGP/SGP4

EPOCH          = 2026-01-08T16:10:04.039968
MEAN_MOTION    = 15.50601043
ECCENTRICITY   = .0001707
INCLINATION    = 43.0010
RA_OF_ASC_NODE = 154.3276
ARG_OF_PERICENTER = 270.6558
MEAN_ANOMALY   = 89.4106

EPHEMERIS_TYPE = 0
CLASSIFICATION_TYPE = U
NORAD_CAT_ID   = 67127
ELEMENT_SET_NO = 999
REV_AT_EPOCH   = 386
BSTAR          = .17191E-2
MEAN_MOTION_DOT = .101915E-2
MEAN_MOTION_DDOT = 0

CCSDS_OMM_VERS = 2.0
CREATION_DATE  = 
ORIGINATOR     = 

OBJECT_NAME    = STARLINK-35685
OBJECT_ID      = 2025-299AC
CENTER_NAME    = EARTH
REF_FRAME      = TEME
TIME_SYSTEM    = UTC
MEAN_ELEMENT_THEORY = SGP/SGP4

EPOCH          = 2026-01-09T00:00:02.998944
MEAN_MOTION    = 15.40656072
ECCENTRICITY   = .0002369
INCLINATION    = 43.0000
RA_OF_ASC_NODE = 152.7276
ARG_OF_PERICENTER = 283.6255
MEAN_ANOMALY   = 333.1199

EPHEMERIS_TYPE = 0
CLASSIFICATION_TYPE = U
NORAD_CAT_ID   = 67128
ELEMENT_SET_NO = 999
REV_AT_EPOCH   = 519
BSTAR          = .31199E-3
MEAN_MOTION_DOT = .12732E-3
MEAN_MOTION_DDOT = 0

CCSDS_OMM_VERS = 2.0
CREATION_DATE  = 
ORIGINATOR     = 

OBJECT_NAME    = STARLINK-36214
OBJECT_ID      = 2025-299AD
CENTER_NAME    = EARTH
REF_FRAME      = TEME
TIME_SYSTEM    = UTC
MEAN_ELEMENT_THEORY = SGP/SGP4

EPOCH          = 2026-01-08T16:09:34.318368
MEAN_MOTION    = 15.50591951
ECCENTRICITY   = .0001765
INCLINATION    = 43.0008
RA_OF_ASC_NODE = 154.3242
ARG_OF_PERICENTER = 264.6094
MEAN_ANOMALY   = 95.4565

EPHEMERIS_TYPE = 0
CLASSIFICATION_TYPE = U
NORAD_CAT_ID   = 67129
ELEMENT_SET_NO = 999
REV_AT_EPOCH   = 386
BSTAR          = .16687E-2
MEAN_MOTION_DOT = .98845E-3
MEAN_MOTION_DDOT = 0

CCSDS_OMM_VERS = 2.0
CREATION_DATE  = 
ORIGINATOR     = 

OBJECT_NAME    = STARLINK-36194
OBJECT_ID      = 2025-299AE
CENTER_NAME    = EARTH
REF_FRAME      = TEME
TIME_SYSTEM    = UTC
MEAN_ELEMENT_THEORY = SGP/SGP4

EPOCH          = 2026-01-07T16:57:14.053824
MEAN_MOTION    = 15.50593986
ECCENTRICITY   = .00034733
INCLINATION    = 42.9999
RA_OF_ASC_NODE = 159.9704
ARG_OF_PERICENTER = 262.6217
MEAN_ANOMALY   = 97.4249

EPHEMERIS_TYPE = 0
CLASSIFICATION_TYPE = U
NORAD_CAT_ID   = 67130
ELEMENT_SET_NO = 999
REV_AT_EPOCH   = 371
BSTAR          = .17928919E-2
MEAN_MOTION_DOT = .10635E-2
MEAN_MOTION_DDOT = 0

CCSDS_OMM_VERS = 2.0
CREATION_DATE  = 
ORIGINATOR     = 

OBJECT_NAME    = ZIYUAN 3-04 (ZY 3-04)
OBJECT_ID      = 2025-300A
CENTER_NAME    = EARTH
REF_FRAME      = TEME
TIME_SYSTEM    = UTC
MEAN_ELEMENT_THEORY = SGP/SGP4

EPOCH          = 2026-01-07T22:23:21.007392
MEAN_MOTION    = 15.21443300
ECCENTRICITY   = .0004017
INCLINATION    = 97.4896
RA_OF_ASC_NODE = 86.9084
ARG_OF_PERICENTER = 124.0140
MEAN_ANOMALY   = 236.1477

EPHEMERIS_TYPE = 0
CLASSIFICATION_TYPE = U
NORAD_CAT_ID   = 67131
ELEMENT_SET_NO = 999
REV_AT_EPOCH   = 347
BSTAR          = .76926E-4
MEAN_MOTION_DOT = .1658E-4
MEAN_MOTION_DDOT = 0

CCSDS_OMM_VERS = 2.0
CREATION_DATE  = 
ORIGINATOR     = 

OBJECT_NAME    = KUIPER-00144
OBJECT_ID      = 2025-301A
CENTER_NAME    = EARTH
REF_FRAME      = TEME
TIME_SYSTEM    = UTC
MEAN_ELEMENT_THEORY = SGP/SGP4

EPOCH          = 2026-01-08T21:49:17.718240
MEAN_MOTION    = 15.36038791
ECCENTRICITY   = .0006639
INCLINATION    = 51.8704
RA_OF_ASC_NODE = 354.0919
ARG_OF_PERICENTER = 161.0010
MEAN_ANOMALY   = 199.1225

EPHEMERIS_TYPE = 0
CLASSIFICATION_TYPE = U
NORAD_CAT_ID   = 67133
ELEMENT_SET_NO = 999
REV_AT_EPOCH   = 454
BSTAR          = .95606E-3
MEAN_MOTION_DOT = .33859E-3
MEAN_MOTION_DDOT = 0

CCSDS_OMM_VERS = 2.0
CREATION_DATE  = 
ORIGINATOR     = 

OBJECT_NAME    = KUIPER-00164
OBJECT_ID      = 2025-301B
CENTER_NAME    = EARTH
REF_FRAME      = TEME
TIME_SYSTEM    = UTC
MEAN_ELEMENT_THEORY = SGP/SGP4

EPOCH          = 2026-01-08T23:08:13.515648
MEAN_MOTION    = 15.36583557
ECCENTRICITY   = .0003086
INCLINATION    = 51.8728
RA_OF_ASC_NODE = 353.7135
ARG_OF_PERICENTER = 144.0464
MEAN_ANOMALY   = 216.0731

EPHEMERIS_TYPE = 0
CLASSIFICATION_TYPE = U
NORAD_CAT_ID   = 67134
ELEMENT_SET_NO = 999
REV_AT_EPOCH   = 473
BSTAR          = .8492E-3
MEAN_MOTION_DOT = .30538E-3
MEAN_MOTION_DDOT = 0

CCSDS_OMM_VERS = 2.0
CREATION_DATE  = 
ORIGINATOR     = 

OBJECT_NAME    = KUIPER-00175
OBJECT_ID      = 2025-301C
CENTER_NAME    = EARTH
REF_FRAME      = TEME
TIME_SYSTEM    = UTC
MEAN_ELEMENT_THEORY = SGP/SGP4

EPOCH          = 2026-01-08T22:57:03.881088
MEAN_MOTION    = 15.37175514
ECCENTRICITY   = .0002834
INCLINATION    = 51.8746
RA_OF_ASC_NODE = 353.6593
ARG_OF_PERICENTER = 95.9438
MEAN_ANOMALY   = 264.1872

EPHEMERIS_TYPE = 0
CLASSIFICATION_TYPE = U
NORAD_CAT_ID   = 67135
ELEMENT_SET_NO = 999
REV_AT_EPOCH   = 462
BSTAR          = .98818E-3
MEAN_MOTION_DOT = .36319E-3
MEAN_MOTION_DDOT = 0

CCSDS_OMM_VERS = 2.0
CREATION_DATE  = 
ORIGINATOR     = 

OBJECT_NAME    = KUIPER-00179
OBJECT_ID      = 2025-301D
CENTER_NAME    = EARTH
REF_FRAME      = TEME
TIME_SYSTEM    = UTC
MEAN_ELEMENT_THEORY = SGP/SGP4

EPOCH          = 2026-01-08T23:05:04.418880
MEAN_MOTION    = 15.36727802
ECCENTRICITY   = .0003529
INCLINATION    = 51.8743
RA_OF_ASC_NODE = 353.6978
ARG_OF_PERICENTER = 125.8916
MEAN_ANOMALY   = 234.2398

EPHEMERIS_TYPE = 0
CLASSIFICATION_TYPE = U
NORAD_CAT_ID   = 67136
ELEMENT_SET_NO = 999
REV_AT_EPOCH   = 473
BSTAR          = .74023E-3
MEAN_MOTION_DOT = .26682E-3
MEAN_MOTION_DDOT = 0

CCSDS_OMM_VERS = 2.0
CREATION_DATE  = 
ORIGINATOR     = 

OBJECT_NAME    = KUIPER-00181
OBJECT_ID      = 2025-301E
CENTER_NAME    = EARTH
REF_FRAME      = TEME
TIME_SYSTEM    = UTC
MEAN_ELEMENT_THEORY = SGP/SGP4

EPOCH          = 2026-01-08T22:12:49.529664
MEAN_MOTION    = 15.34709818
ECCENTRICITY   = .0010438
INCLINATION    = 51.8653
RA_OF_ASC_NODE = 354.1893
ARG_OF_PERICENTER = 186.9508
MEAN_ANOMALY   = 173.1335

EPHEMERIS_TYPE = 0
CLASSIFICATION_TYPE = U
NORAD_CAT_ID   = 67137
ELEMENT_SET_NO = 999
REV_AT_EPOCH   = 470
BSTAR          = -.32367E-3
MEAN_MOTION_DOT = -.11444E-3
MEAN_MOTION_DDOT = 0

CCSDS_OMM_VERS = 2.0
CREATION_DATE  = 
ORIGINATOR     = 

OBJECT_NAME    = KUIPER-00183
OBJECT_ID      = 2025-301F
CENTER_NAME    = EARTH
REF_FRAME      = TEME
TIME_SYSTEM    = UTC
MEAN_ELEMENT_THEORY = SGP/SGP4

EPOCH          = 2026-01-08T22:19:18.346944
MEAN_MOTION    = 15.34698154
ECCENTRICITY   = .0011188
INCLINATION    = 51.8631
RA_OF_ASC_NODE = 354.2142
ARG_OF_PERICENTER = 189.0077
MEAN_ANOMALY   = 171.0710

EPHEMERIS_TYPE = 0
CLASSIFICATION_TYPE = U
NORAD_CAT_ID   = 67138
ELEMENT_SET_NO = 999
REV_AT_EPOCH   = 471
BSTAR          = .49245E-3
MEAN_MOTION_DOT = .16498E-3
MEAN_MOTION_DDOT = 0

